[{"OBJECT_ID":"2005-012A","OBJECT_NAME":"APSTAR 6","NORAD_CAT_ID":"28638","OBJECT_TYPE":"PAYLOAD","PERIOD":"1436.145","INCLINATION":"0.0349","APOGEE":"35797.101","PERIGEE":"35778.000","ECCENTRICITY":"0.0002265","MEAN_MOTION":"1.00268382","TLE_LINE1":"1 28638U 05012A   16238.85226260 -.00000346 +00000-0 +00000-0 0  9990","TLE_LINE2":"2 28638 000.0349 095.7628 0002265 064.8842 254.6691 01.00268382066497","LAUNCH_DATE":"2005-04-12","LAUNCH_SITE":"Xichang Space Center, China","OWNER":"PEOPLES REPUBLIC OF CHINA","ORBIT_TYPE":"Geosynchronous","OPERATIONAL_STATUS":"Operational","satInfo":{"lng":132.80163048050363,"lat":-2.1251998956803906,"elevation":-10.64150317560185,"azimuth":182.19836951949634,"range":42886.97460550148,"height":35800.24245831817,"velocity":3.0738592856770364},"x":250.3554402751346,"y":231.704031479809,"dx":-2.0885711433178695,"dy":2.25532292309612,"maxAlt":341.8796536142362,"minAlt":341.6962130902595},{"OBJECT_ID":"2005-015B","OBJECT_NAME":"BLOCK DM-SL R/B","NORAD_CAT_ID":"28645","OBJECT_TYPE":"ROCKET BODY","PERIOD":"498.482","INCLINATION":"0.3129","APOGEE":"28648.866","PERIGEE":"245.652","ECCENTRICITY":"0.681937","MEAN_MOTION":"2.88876962","TLE_LINE1":"1 28645U 05015B   16239.27580950  .00002873  00000-0  54369-3 0  9993","TLE_LINE2":"2 28645   0.3129 301.7125 6819370 162.0994 335.1946  2.88876962108451","LAUNCH_DATE":"2005-04-26","LAUNCH_SITE":"SEA LAUNCH","OWNER":"SEA LAUNCH DEMO","ORBIT_TYPE":"Highly Elliptical Orbit","OPERATIONAL_STATUS":"N/A, derelict rocket body","satInfo":{"lng":-9.44709966004105,"lat":-1.6775311784121676,"elevation":-17.256428239622334,"azimuth":324.44709966004103,"range":23655.90103570966,"height":16222.601118982093,"velocity":3.976666872750254},"x":-27.477506875241527,"y":-155.5896520695069,"dx":3.9227335952419327,"dy":-0.6527178238638692,"maxAlt":273.23005548281145,"minAlt":0.4537370292550948},{"OBJECT_ID":"2005-022A","OBJECT_NAME":"GALAXY 28 (IA 8)","NORAD_CAT_ID":"28702","OBJECT_TYPE":"PAYLOAD","PERIOD":"1436.090","INCLINATION":"0.0171","APOGEE":"35787.787","PERIGEE":"35785.139","ECCENTRICITY":"3.14e-05","MEAN_MOTION":"1.0027226","TLE_LINE1":"1 28702U 05022A   16239.14285433 -.00000213  00000-0  00000+0 0  9995","TLE_LINE2":"2 28702   0.0171 109.0149 0000314 297.9393 250.2901  1.00272260 40906","LAUNCH_DATE":"2005-06-23","LAUNCH_SITE":"SEA LAUNCH","OWNER":"INTERNATIONAL TELECOMMUNICATIONS SATELLITE ORGANIZATION (INTELSAT)","ORBIT_TYPE":"Geosynchronous","OPERATIONAL_STATUS":"Operational","satInfo":{"lng":-102.4562673784961,"lat":1.6605682494806222,"elevation":-6.947011966706126,"azimuth":57.456267378496065,"range":42465.77589290979,"height":35793.566093048685,"velocity":3.0744656817757194},"x":-337.56499059446304,"y":72.23974965127859,"dx":-0.663144924384934,"dy":-3.0020956076845953,"maxAlt":341.7902046303966,"minAlt":341.7647739981004},{"OBJECT_ID":"2005-023A","OBJECT_NAME":"EXPRESS AM-3","NORAD_CAT_ID":"28707","OBJECT_TYPE":"PAYLOAD","PERIOD":"1436.128","INCLINATION":"0.0437","APOGEE":"35787.624","PERIGEE":"35786.806","ECCENTRICITY":"9.7e-06","MEAN_MOTION":"1.00269578","TLE_LINE1":"1 28707U 05023A   16238.69979986 -.00000349 +00000-0 +00000-0 0  9994","TLE_LINE2":"2 28707 000.0437 277.3347 0000097 018.8315 033.1233 01.00269578040923","LAUNCH_DATE":"2005-06-24","LAUNCH_SITE":"TYURATAM MISSILE AND SPACE COMPLEX","OWNER":"COMMONWEALTH OF INDEPENDENT STATES","ORBIT_TYPE":"Geosynchronous","OPERATIONAL_STATUS":"Operational","satInfo":{"lng":48.772385814469125,"lat":1.1489846397162424,"elevation":-7.448860669551203,"azimuth":266.22761418553085,"range":42520.25668423484,"height":35791.76020850293,"velocity":3.0745275196996427},"x":256.6158467727589,"y":-228.4438859580575,"dx":2.0262735611270144,"dy":2.312344032549673,"maxAlt":341.7886392251609,"minAlt":341.78078338784275},{"OBJECT_ID":"2005-028A","OBJECT_NAME":"IPSTAR 1","NORAD_CAT_ID":"28786","OBJECT_TYPE":"PAYLOAD","PERIOD":"1436.207","INCLINATION":"0.0216","APOGEE":"35798.987","PERIGEE":"35778.536","ECCENTRICITY":"0.0002425","MEAN_MOTION":"1.00264061","TLE_LINE1":"1 28786U 05028A   16238.02951149  .00000000  00000-0  10000-3 0  9991","TLE_LINE2":"2 28786   0.0216  86.0003 0002425  69.0267 308.7506  1.00264061 40409","LAUNCH_DATE":"2005-08-11","LAUNCH_SITE":"FRENCH GUIANA","OWNER":"THAILAND","ORBIT_TYPE":"Geosynchronous","OPERATIONAL_STATUS":"Operational","satInfo":{"lng":65.84453054048903,"lat":-1.9941145385640824,"elevation":-10.510528830058583,"azimuth":249.15546945951095,"range":42890.607326274876,"height":35818.354185401186,"velocity":3.0732905719644896},"x":311.9635305395477,"y":-142.67063186502412,"dx":1.2576335471790259,"dy":2.8041884388777656,"maxAlt":341.89776621714805,"minAlt":341.7013606804826},{"OBJECT_ID":"2005-030A","OBJECT_NAME":"GALAXY 14","NORAD_CAT_ID":"28790","OBJECT_TYPE":"PAYLOAD","PERIOD":"1436.090","INCLINATION":"0.0099","APOGEE":"35796.024","PERIGEE":"35776.932","ECCENTRICITY":"0.0002264","MEAN_MOTION":"1.00272209","TLE_LINE1":"1 28790U 05030A   16239.40922928  .00000008  00000-0  00000+0 0  9998","TLE_LINE2":"2 28790   0.0099  63.6790 0002264  98.3409 195.3621  1.00272209 40389","LAUNCH_DATE":"2005-08-13","LAUNCH_SITE":"TYURATAM MISSILE AND SPACE COMPLEX","OWNER":"UNITED STATES OF AMERICA","ORBIT_TYPE":"Geosynchronous","OPERATIONAL_STATUS":"Operational","satInfo":{"lng":-108.45006439038046,"lat":2.0272867128921033,"elevation":-6.592046493354437,"azimuth":63.45006439038044,"range":42401.391660713976,"height":35769.280469006306,"velocity":3.0755576628434618},"x":-327.766466053556,"y":106.81043745257581,"dx":-0.9733464402565682,"dy":-2.9174735036868804,"maxAlt":341.8693104152244,"minAlt":341.68595632466565},{"OBJECT_ID":"2005-041A","OBJECT_NAME":"GALAXY 15","NORAD_CAT_ID":"28884","OBJECT_TYPE":"PAYLOAD","PERIOD":"1436.087","INCLINATION":"0.0568","APOGEE":"35791.007","PERIGEE":"35781.824","ECCENTRICITY":"0.0001089","MEAN_MOTION":"1.00272431","TLE_LINE1":"1 28884U 05041A   16239.28844422  .00000050  00000-0  00000+0 0  9999","TLE_LINE2":"2 28884   0.0568 282.2553 0001089 247.7303 135.8159  1.00272431 39703","LAUNCH_DATE":"2005-10-13","LAUNCH_SITE":"FRENCH GUIANA","OWNER":"INTERNATIONAL TELECOMMUNICATIONS SATELLITE ORGANIZATION (INTELSAT)","ORBIT_TYPE":"Geosynchronous","OPERATIONAL_STATUS":"Partially operational","satInfo":{"lng":-114.64980985080344,"lat":-1.4978660271720317,"elevation":-10.037406038174536,"azimuth":69.64980985080344,"range":42789.09754907133,"height":35770.42574301033,"velocity":3.075351755622165},"x":-314.1298821255753,"y":141.37053616867928,"dx":-1.2826402643703585,"dy":-2.7951068625410853,"maxAlt":341.82112858658763,"minAlt":341.7329376891646},{"OBJECT_ID":"2005-041B","OBJECT_NAME":"SYRACUSE 3A","NORAD_CAT_ID":"28885","OBJECT_TYPE":"PAYLOAD","PERIOD":"1436.037","INCLINATION":"0.0082","APOGEE":"35798.152","PERIGEE":"35772.711","ECCENTRICITY":"0.0003017","MEAN_MOTION":"1.00275941","TLE_LINE1":"1 28885U 05041B   16238.83416251  .00000101  00000-0  00000+0 0  9992","TLE_LINE2":"2 28885   0.0082 115.1011 0003017  50.9937 155.7254  1.00275941 39805","LAUNCH_DATE":"2005-10-13","LAUNCH_SITE":"FRENCH GUIANA","OWNER":"FRANCE","ORBIT_TYPE":"Geosynchronous","OPERATIONAL_STATUS":"Operational","satInfo":{"lng":101.05150153886493,"lat":-1.9636796862331156,"elevation":-10.486249227056554,"azimuth":213.94849846113507,"range":42860.798527375206,"height":35791.56596784549,"velocity":3.074093742042312},"x":335.4520823278194,"y":63.9849777505646,"dx":-0.5892769482577284,"dy":3.017085516374331,"maxAlt":341.8897471167072,"minAlt":341.6454190516588},{"OBJECT_ID":"2005-046A","OBJECT_NAME":"TELKOM 2","NORAD_CAT_ID":"28902","OBJECT_TYPE":"PAYLOAD","PERIOD":"1436.061","INCLINATION":"0.0355","APOGEE":"35792.054","PERIGEE":"35779.768","ECCENTRICITY":"0.0001457","MEAN_MOTION":"1.0027423","TLE_LINE1":"1 28902U 05046A   16238.42313179 -.00000389  00000-0  00000+0 0  9996","TLE_LINE2":"2 28902   0.0355 282.7090 0001457 241.4507  80.2697  1.00274230 39311","LAUNCH_DATE":"2005-11-16","LAUNCH_SITE":"FRENCH GUIANA","OWNER":"INDONESIA","ORBIT_TYPE":"Geosynchronous","OPERATIONAL_STATUS":"Operational","satInfo":{"lng":66.24331638431318,"lat":1.5244912609701682,"elevation":-7.076375329735989,"azimuth":248.75668361568682,"range":42500.802670499914,"height":35813.84830923126,"velocity":3.07359306590573},"x":312.8960573662797,"y":-140.46523967452748,"dx":1.238207598800594,"dy":2.8131505962276977,"maxAlt":341.8311836742063,"minAlt":341.7131924550252},{"OBJECT_ID":"2005-049A","OBJECT_NAME":"INSAT 4A","NORAD_CAT_ID":"28911","OBJECT_TYPE":"PAYLOAD","PERIOD":"1436.086","INCLINATION":"0.078","APOGEE":"35804.860","PERIGEE":"35767.932","ECCENTRICITY":"0.0004379","MEAN_MOTION":"1.00272499","TLE_LINE1":"1 28911U 05049A   16238.84016785 -.00000192  00000-0  00000+0 0  9990","TLE_LINE2":"2 28911   0.0780 270.3204 0004379 315.2292 134.4081  1.00272499 39178","LAUNCH_DATE":"2005-12-21","LAUNCH_SITE":"FRENCH GUIANA","OWNER":"INDIA","ORBIT_TYPE":"Geosynchronous","OPERATIONAL_STATUS":"Operational","satInfo":{"lng":67.53808820003286,"lat":1.8645528638406317,"elevation":-6.750276929604955,"azimuth":247.46191179996714,"range":42426.674937081734,"height":35776.72837315645,"velocity":3.075367089069795},"x":315.6171493990508,"y":-133.18036991320974,"dx":1.175002998962607,"dy":2.8420504367379733,"maxAlt":341.95416882420085,"minAlt":341.59952290674045}]